{"type": "FeatureCollection", "features": [ {"type": "Feature", "properties": {"norad_id": 35759, "name": "COSMOS 2251 DEB", "group": "cosmos-2251-debris", "lat": 30.461054617058462, "lon": 24.508264247612885, "alt_km": 729.708560889283, "timestamp": "2025-12-13T16:48:33.106513+00:00", "meta": {"OBJECT_NAME": "COSMOS 2251 DEB", "OBJECT_ID": "1993-036ARD", "EPOCH": "2025-12-12T22:06:17.325504", "MEAN_MOTION": 14.64892065, "ECCENTRICITY": 0.00770642, "INCLINATION": 74.0372, "RA_OF_ASC_NODE": 215.6979, "ARG_OF_PERICENTER": 333.7707, "MEAN_ANOMALY": 25.9566, "EPHEMERIS_TYPE": 0, "CLASSIFICATION_TYPE": "U", "NORAD_CAT_ID": 35759, "ELEMENT_SET_NO": 999, "REV_AT_EPOCH": 66138, "BSTAR": 0.00045171828, "MEAN_MOTION_DOT": 2.49e-05, "MEAN_MOTION_DDOT": 0}, "tle": {"line1": "1 35759U 93036ARD 25346.92103386  .00002490  00000+0  45172-3 0  9998", "line2": "2 35759  74.0372 215.6979 0077064 333.7707  25.9566 14.64892065661389"}}, "geometry": {"type": "Point", "coordinates": [24.508264247612885, 30.461054617058462]}}, {"type": "Feature", "properties": {"norad_id": 35771, "name": "COSMOS 2251 DEB", "group": "cosmos-2251-debris", "lat": -17.64302673118128, "lon": -56.53611579030747, "alt_km": 864.4024525642681, "timestamp": "2025-12-13T16:48:33.106524+00:00", "meta": {"OBJECT_NAME": "COSMOS 2251 DEB", "OBJECT_ID": "1993-036ARR", "EPOCH": "2025-12-01T22:51:30.250944", "MEAN_MOTION": 14.12929206, "ECCENTRICITY": 0.02319336, "INCLINATION": 74.1559, "RA_OF_ASC_NODE": 329.2822, "ARG_OF_PERICENTER": 270.0805, "MEAN_ANOMALY": 87.3761, "EPHEMERIS_TYPE": 0, "CLASSIFICATION_TYPE": "U", "NORAD_CAT_ID": 35771, "ELEMENT_SET_NO": 999, "REV_AT_EPOCH": 82708, "BSTAR": 0.0074414228, "MEAN_MOTION_DOT": 0.00017913, "MEAN_MOTION_DDOT": 0}, "tle": {"line1": "1 35771U 93036ARR 25335.95243346  .00017913  00000+0  74414-2 0  9990", "line2": "2 35771  74.1559 329.2822 0231933 270.0805  87.3761 14.12929206827080"}}, "geometry": {"type": "Point", "coordinates": [-56.53611579030747, -17.64302673118128]}}, {"type": "Feature", "properties": {"norad_id": 35773, "name": "COSMOS 2251 DEB", "group": "cosmos-2251-debris", "lat": 21.036674662660214, "lon": -14.688801238877952, "alt_km": 700.4257832154799, "timestamp": "2025-12-13T16:48:33.106534+00:00", "meta": {"OBJECT_NAME": "COSMOS 2251 DEB", "OBJECT_ID": "1993-036ART", "EPOCH": "2025-12-12T09:30:25.729632", "MEAN_MOTION": 14.62066198, "ECCENTRICITY": 0.00455671, "INCLINATION": 74.0082, "RA_OF_ASC_NODE": 341.4791, "ARG_OF_PERICENTER": 141.6526, "MEAN_ANOMALY": 218.7896, "EPHEMERIS_TYPE": 0, "CLASSIFICATION_TYPE": "U", "NORAD_CAT_ID": 35773, "ELEMENT_SET_NO": 999, "REV_AT_EPOCH": 86834, "BSTAR": 0.00090074362, "MEAN_MOTION_DOT": 4.563e-05, "MEAN_MOTION_DDOT": 0}, "tle": {"line1": "1 35773U 93036ART 25346.39613113  .00004563  00000+0  90074-3 0  9993", "line2": "2 35773  74.0082 341.4791 0045567 141.6526 218.7896 14.62066198868342"}}, "geometry": {"type": "Point", "coordinates": [-14.688801238877952, 21.036674662660214]}}, {"type": "Feature", "properties": {"norad_id": 35777, "name": "COSMOS 2251 DEB", "group": "cosmos-2251-debris", "lat": 53.602130691303024, "lon": 117.93512974073148, "alt_km": 1100.9400804981797, "timestamp": "2025-12-13T16:48:33.106544+00:00", "meta": {"OBJECT_NAME": "COSMOS 2251 DEB", "OBJECT_ID": "1993-036ARX", "EPOCH": "2025-12-11T16:44:43.408032", "MEAN_MOTION": 13.41302168, "ECCENTRICITY": 0.04523975, "INCLINATION": 73.7703, "RA_OF_ASC_NODE": 324.405, "ARG_OF_PERICENTER": 219.3938, "MEAN_ANOMALY": 322.0409, "EPHEMERIS_TYPE": 0, "CLASSIFICATION_TYPE": "U", "NORAD_CAT_ID": 35777, "ELEMENT_SET_NO": 999, "REV_AT_EPOCH": 79670, "BSTAR": 0.00059855427, "MEAN_MOTION_DOT": 5.85e-06, "MEAN_MOTION_DDOT": 0}, "tle": {"line1": "1 35777U 93036ARX 25345.69772463  .00000585  00000+0  59855-3 0  9995", "line2": "2 35777  73.7703 324.4050 0452397 219.3938 322.0409 13.41302168796709"}}, "geometry": {"type": "Point", "coordinates": [117.93512974073148, 53.602130691303024]}}, {"type": "Feature", "properties": {"norad_id": 35784, "name": "COSMOS 2251 DEB", "group": "cosmos-2251-debris", "lat": -2.989470164163382, "lon": 87.0460907563217, "alt_km": 750.6684490934158, "timestamp": "2025-12-13T16:48:33.106553+00:00", "meta": {"OBJECT_NAME": "COSMOS 2251 DEB", "OBJECT_ID": "1993-036ASE", "EPOCH": "2025-12-11T13:29:37.163616", "MEAN_MOTION": 14.50036581, "ECCENTRICITY": 0.00425182, "INCLINATION": 74.0367, "RA_OF_ASC_NODE": 91.9162, "ARG_OF_PERICENTER": 224.1944, "MEAN_ANOMALY": 135.5818, "EPHEMERIS_TYPE": 0, "CLASSIFICATION_TYPE": "U", "NORAD_CAT_ID": 35784, "ELEMENT_SET_NO": 999, "REV_AT_EPOCH": 65689, "BSTAR": 0.00055568841, "MEAN_MOTION_DOT": 2.151e-05, "MEAN_MOTION_DDOT": 0}, "tle": {"line1": "1 35784U 93036ASE 25345.56223569  .00002151  00000+0  55569-3 0  9996", "line2": "2 35784  74.0367  91.9162 0042518 224.1944 135.5818 14.50036581656898"}}, "geometry": {"type": "Point", "coordinates": [87.0460907563217, -2.989470164163382]}}, {"type": "Feature", "properties": {"norad_id": 35786, "name": "COSMOS 2251 DEB", "group": "cosmos-2251-debris", "lat": -27.633497880869147, "lon": 33.28502373502963, "alt_km": 701.087105528205, "timestamp": "2025-12-13T16:48:33.106563+00:00", "meta": {"OBJECT_NAME": "COSMOS 2251 DEB", "OBJECT_ID": "1993-036ASG", "EPOCH": "2025-12-11T14:10:39.925632", "MEAN_MOTION": 14.66207528, "ECCENTRICITY": 0.00341301, "INCLINATION": 74.0141, "RA_OF_ASC_NODE": 45.9861, "ARG_OF_PERICENTER": 176.1122, "MEAN_ANOMALY": 184.032, "EPHEMERIS_TYPE": 0, "CLASSIFICATION_TYPE": "U", "NORAD_CAT_ID": 35786, "ELEMENT_SET_NO": 999, "REV_AT_EPOCH": 73391, "BSTAR": 0.0016405904, "MEAN_MOTION_DOT": 9.091e-05, "MEAN_MOTION_DDOT": 0}, "tle": {"line1": "1 35786U 93036ASG 25345.59073988  .00009091  00000+0  16406-2 0  9995", "line2": "2 35786  74.0141  45.9861 0034130 176.1122 184.0320 14.66207528733914"}}, "geometry": {"type": "Point", "coordinates": [33.28502373502963, -27.633497880869147]}}, {"type": "Feature", "properties": {"norad_id": 35789, "name": "COSMOS 2251 DEB", "group": "cosmos-2251-debris", "lat": -71.72790089528476, "lon": -137.4806353541724, "alt_km": 786.0661277076115, "timestamp": "2025-12-13T16:48:33.106573+00:00", "meta": {"OBJECT_NAME": "COSMOS 2251 DEB", "OBJECT_ID": "1993-036ASK", "EPOCH": "2025-12-12T19:26:54.389472", "MEAN_MOTION": 14.35986036, "ECCENTRICITY": 0.00473234, "INCLINATION": 74.039, "RA_OF_ASC_NODE": 284.2396, "ARG_OF_PERICENTER": 23.6443, "MEAN_ANOMALY": 336.687, "EPHEMERIS_TYPE": 0, "CLASSIFICATION_TYPE": "U", "NORAD_CAT_ID": 35789, "ELEMENT_SET_NO": 999, "REV_AT_EPOCH": 61228, "BSTAR": 0.0002206071, "MEAN_MOTION_DOT": 6.23e-06, "MEAN_MOTION_DDOT": 0}, "tle": {"line1": "1 35789U 93036ASK 25346.81035173  .00000623  00000+0  22061-3 0  9995", "line2": "2 35789  74.0390 284.2396 0047323  23.6443 336.6870 14.35986036612289"}}, "geometry": {"type": "Point", "coordinates": [-137.4806353541724, -71.72790089528476]}}, {"type": "Feature", "properties": {"norad_id": 35793, "name": "COSMOS 2251 DEB", "group": "cosmos-2251-debris", "lat": 56.56459590112356, "lon": -147.38694821465637, "alt_km": 625.7238315735431, "timestamp": "2025-12-13T16:48:33.106583+00:00", "meta": {"OBJECT_NAME": "COSMOS 2251 DEB", "OBJECT_ID": "1993-036ASP", "EPOCH": "2025-12-11T14:14:11.171904", "MEAN_MOTION": 14.78636291, "ECCENTRICITY": 0.00026835, "INCLINATION": 74.0409, "RA_OF_ASC_NODE": 62.436, "ARG_OF_PERICENTER": 124.0966, "MEAN_ANOMALY": 303.196, "EPHEMERIS_TYPE": 0, "CLASSIFICATION_TYPE": "U", "NORAD_CAT_ID": 35793, "ELEMENT_SET_NO": 999, "REV_AT_EPOCH": 65780, "BSTAR": 0.0026518543, "MEAN_MOTION_DOT": 0.00019452, "MEAN_MOTION_DDOT": 0}, "tle": {"line1": "1 35793U 93036ASP 25345.59318486  .00019452  00000+0  26519-2 0  9996", "line2": "2 35793  74.0409  62.4360 0002683 124.0966 303.1960 14.78636291657806"}}, "geometry": {"type": "Point", "coordinates": [-147.38694821465637, 56.56459590112356]}}, {"type": "Feature", "properties": {"norad_id": 35824, "name": "COSMOS 2251 DEB", "group": "cosmos-2251-debris", "lat": -10.16947630624638, "lon": -129.87707060154054, "alt_km": 836.3627955702323, "timestamp": "2025-12-13T16:48:33.106592+00:00", "meta": {"OBJECT_NAME": "COSMOS 2251 DEB", "OBJECT_ID": "1993-036ASW", "EPOCH": "2025-12-08T11:24:31.157568", "MEAN_MOTION": 13.883958, "ECCENTRICITY": 0.02494458, "INCLINATION": 73.8458, "RA_OF_ASC_NODE": 56.1203, "ARG_OF_PERICENTER": 143.0234, "MEAN_ANOMALY": 218.8382, "EPHEMERIS_TYPE": 0, "CLASSIFICATION_TYPE": "U", "NORAD_CAT_ID": 35824, "ELEMENT_SET_NO": 999, "REV_AT_EPOCH": 84168, "BSTAR": 0.0020429183, "MEAN_MOTION_DOT": 3.116e-05, "MEAN_MOTION_DDOT": 0}, "tle": {"line1": "1 35824U 93036ASW 25342.47536062  .00003116  00000+0  20429-2 0  9991", "line2": "2 35824  73.8458  56.1203 0249445 143.0234 218.8382 13.88395800841685"}}, "geometry": {"type": "Point", "coordinates": [-129.87707060154054, -10.16947630624638]}}, {"type": "Feature", "properties": {"norad_id": 35825, "name": "COSMOS 2251 DEB", "group": "cosmos-2251-debris", "lat": 39.70392621130292, "lon": -52.616957850748584, "alt_km": 1021.0654330864418, "timestamp": "2025-12-13T16:48:33.106602+00:00", "meta": {"OBJECT_NAME": "COSMOS 2251 DEB", "OBJECT_ID": "1993-036ASX", "EPOCH": "2025-12-06T17:43:31.257408", "MEAN_MOTION": 13.70908059, "ECCENTRICITY": 0.03529553, "INCLINATION": 74.1125, "RA_OF_ASC_NODE": 152.5025, "ARG_OF_PERICENTER": 249.6557, "MEAN_ANOMALY": 106.6316, "EPHEMERIS_TYPE": 0, "CLASSIFICATION_TYPE": "U", "NORAD_CAT_ID": 35825, "ELEMENT_SET_NO": 999, "REV_AT_EPOCH": 82426, "BSTAR": 0.0026115912, "MEAN_MOTION_DOT": 3.599e-05, "MEAN_MOTION_DDOT": 0}, "tle": {"line1": "1 35825U 93036ASX 25340.73855622  .00003599  00000+0  26116-2 0  9999", "line2": "2 35825  74.1125 152.5025 0352955 249.6557 106.6316 13.70908059824269"}}, "geometry": {"type": "Point", "coordinates": [-52.616957850748584, 39.70392621130292]}}]}